C/2021 C6 (Lemmon),e,164.6045,332.3450,203.8210,3169,0.0000055,0.99896507,0.0000,11/12.3119/2021,2000,g 12.0,4.0
# From MPEC 2022-F14
C/2021 D1 (SWAN),e,31.3914,311.2245,72.3522,101.7450,0.0009604,0.99110457,0.0000,02/27.6882/2021,2000,g 13.0,4.0
# From MPEC 2023-J29
C/2021 D2 (ZTF),h,02/03.8850/2022,83.7881,305.6529,125.0375,1.001547,2.947074,2000,9.0,4.0
# From MPEC 2022-UY9
A/2021 E2,e,167.4901,190.7918,342.2871,209.5846,0.0003248,0.98910878,0.0000,12/09.7819/2020,2000,g 15.0,2.0
# From MPEC 2024-GJ3
C/2021 E3 (ZTF),h,06/11.6891/2022,112.5294,104.4835,228.8262,1.000395,1.777130,2000,8.5,4.0
# From MPEC 2024-N80
A/2021 E4,e,116.3655,171.1597,48.2676,520.2143,0.0000831,0.99100846,0.0000,04/24.9518/2022,2000,g 13.5,22.0
# From MPEC 2022-QD9
C/2021 F1 (Lemmon-PANSTARRS),e,107.3127,203.4888,146.8960,244.0687,0.0002585,0.99591136,0.0000,04/06.7614/2022,2000,g 13.5,4.0
# From MPEC 2021-J72
C/2021 G1 (Leonard),e,131.5492,270.7000,107.4357,72.04710,0.0016117,0.95245818,1.7726,07/25.0/2024,2000,g 14.0,4.0
# From MPEC 2024-O39
C/2021 G2 (ATLAS),h,09/09.2319/2024,48.4737,221.0948,343.2811,1.000175,4.982384,2000,5.5,4.0
# From MPEC 2022-X67
C/2021 G3 (PANSTARRS),e,102.8694,147.3754,10.5806,9925,0.0000010,0.99947804,0.0000,10/17.8700/2021,2000,g 10.5,4.0
# From MPEC 2021-Y10
P/2021 HS (PANSTARRS),e,12.1556,262.3625,46.1394,4.194202,0.1147440,0.80948223,124.4226,07/25.0/2024,2000,g 22.0,4.0
# From MPEC 2022-C56
C/2021 J1 (Maury-Attard),e,92.7118,88.4176,147.2636,26.28269,0.0073147,0.93388395,9.1553,07/25.0/2024,2000,g 15.5,4.0
# From MPEC 2023-XP6
C/2021 J2 (PANSTARRS),e,156.2122,23.3269,171.9373,114.4701,0.0008048,0.95892425,0.8349,07/25.0/2024,2000,g 12.0,4.0
# From MPEC 2024-F34
P/2021 J3 (ATLAS),e,14.5220,111.0840,125.7939,8.907773,0.0370724,0.44903364,68.5984,07/25.0/2024,2000,g  7.0,4.0
# From MPEC 2022-O08
C/2021 K1 (ATLAS),e,16.2731,140.9174,184.2594,12.63586,0.0219430,0.80208288,25.8611,07/25.0/2024,2000,g 11.0,4.0
# From MPEC 2022-O01
C/2021 K2 (MASTER),h,09/09.5963/2021,100.8654,282.3239,343.3315,1.000843,5.467767,2000,8.0,4.0
# From MPEC 2022-L66
C/2021 K3 (Catalina),h,02/03.9139/2022,134.7788,114.5881,182.0489,1.004478,5.231026,2000,10.0,4.0
# From MPEC 2021-W31
P/2021 L2 (Leonard),e,21.0648,266.6539,51.4853,4.048331,0.1210013,0.52075448,132.7875,07/25.0/2024,2000,g 17.0,4.0
# From MPEC 2024-H50
C/2021 L3 (Borisov),h,02/14.7603/2022,78.5595,345.0008,91.6357,1.004564,8.458908,2000,6.0,4.0
# From MPEC 2022-TA0
P/2021 N1 (ZTF),e,11.4882,301.1456,21.2384,2.978934,0.1916958,0.67589315,219.5170,07/25.0/2024,2000,g 19.0,4.0
# From MPEC 2024-GJ3
P/2021 N2 (Fuls),e,13.0611,221.7328,177.5697,6.944053,0.0538623,0.45250760,52.9832,07/25.0/2024,2000,g  9.5,4.0
# From MPEC 2022-YB4
C/2021 N3 (PANSTARRS),e,26.7518,337.5063,304.6933,144.4987,0.0005674,0.96044093,0.8154,07/25.0/2024,2000,g  8.5,4.0
# From MPEC 2022-A21
C/2021 O1 (Nishimura),e,27.5916,41.5874,74.3912,3073,0.0000058,0.99974506,0.0000,08/14.3768/2021,2000,g 10.5,4.0
# From MPEC 2022-L66
C/2021 O3 (PANSTARRS),h,04/21.1413/2022,56.8041,188.9309,299.9639,1.000043,0.285827,2000,10.5,4.0
# From MPEC 2024-F34
C/2021 P1 (PANSTARRS),e,51.6323,359.6922,40.5070,2910,0.0000063,0.99849591,0.0000,06/02.6275/2022,2000,g 11.0,4.0
# From MPEC 2024-NE4
C/2021 P2 (PANSTARRS),e,150.0620,32.0849,76.7218,6438,0.0000019,0.99921258,0.0000,01/23.0292/2023,2000,g  9.0,4.0
# From MPEC 2024-GJ3
P/2021 P3 (PANSTARRS),e,27.1609,358.2461,334.0705,4.412416,0.1063382,0.33859427,122.5671,07/25.0/2024,2000,g 14.0,4.0
# From MPEC 2023-A50
C/2021 P4 (ATLAS),e,56.3340,348.0550,175.7951,295.9717,0.0001936,0.99635333,0.0000,07/30.3455/2022,2000,g  9.5,4.0
# From MPEC 2023-E68
P/2021 PE20 (ATLAS),e,20.0005,99.6252,210.4640,3.745955,0.1359441,0.66992307,155.6166,07/25.0/2024,2000,g 17.0,4.0
# From MPEC 2023-FK0
C/2021 Q3 (ATLAS),e,77.7332,307.9141,114.1235,75.54822,0.0015010,0.93108721,1.3669,07/25.0/2024,2000,g  8.0,4.0
# From MPEC 2024-NE4
C/2021 Q4 (Fuls),h,06/11.5156/2023,71.4924,183.3269,147.0748,1.002763,7.565549,2000,6.0,4.0
# From MPEC 2022-C56
P/2021 Q5 (ATLAS),e,10.7398,239.7572,180.9390,3.286915,0.1653946,0.62466582,175.1524,07/25.0/2024,2000,g 15.0,4.0
# From MPEC 2024-NE4
C/2021 Q6 (PANSTARRS),h,03/25.1852/2024,161.8409,133.5494,141.0414,1.002050,8.707864,2000,6.0,4.0
# From MPEC 2023-FK0
C/2021 QM45 (PANSTARRS),e,22.8127,354.5974,72.8691,394.8440,0.0001256,0.99297108,0.0000,08/13.6674/2022,2000,g 11.0,4.0
# From MPEC 2022-X67
P/2021 R1 (PANSTARRS),e,5.5233,143.2150,220.2015,8.287868,0.0413085,0.41056978,39.4498,07/25.0/2024,2000,g 11.0,4.0
# From MPEC 2022-X67
C/2021 R2 (PANSTARRS),e,134.4838,16.3126,32.5169,4907,0.0000029,0.99850902,0.0000,12/27.9483/2021,2000,g  7.5,4.0
# From MPEC 2021-W31
P/2021 R3 (PANSTARRS),e,19.9341,304.1934,2.6714,3.770685,0.1346089,0.33106221,155.7192,07/25.0/2024,2000,g 16.0,4.0
# From MPEC 2021-W31
P/2021 R4 (Wierzchos),e,21.0222,321.2932,56.7318,5.625952,0.0738601,0.58571808,74.9727,07/25.0/2024,2000,g 16.0,4.0
# From MPEC 2024-JU4
P/2021 R5 (Rankin),e,7.8544,219.9548,167.5598,4.796324,0.0938299,0.30638561,86.7245,07/25.0/2024,2000,g 12.0,4.0
# From MPEC 2021-W31
P/2021 R6 (Groeller),e,34.9109,176.1608,220.8329,6.286212,0.0625346,0.59334388,62.3351,07/25.0/2024,2000,g 14.5,4.0
# From MPEC 2022-X67
C/2021 R7 (PANSTARRS),e,158.8662,170.1749,140.3314,891.1771,0.0000370,0.99365721,0.0000,04/16.7397/2021,2000,g 10.5,4.0
# From MPEC 2021-Y10
P/2021 R8 (Sheppard),e,2.2031,167.0738,190.8365,3.019329,0.1878618,0.29291807,191.9534,07/25.0/2024,2000,g 18.5,4.0
# From MPEC 2023-J29
C/2021 S1 (ATLAS),h,03/01.6393/2022,52.0493,299.8674,148.2505,1.002674,6.121515,2000,7.0,4.0
# From MPEC 2024-O39
C/2021 S3 (PANSTARRS),h,02/15.0013/2024,58.5776,215.7409,6.9746,1.009378,1.321286,2000,5.5,4.0
# From MPEC 2024-GJ3
C/2021 S4 (Tsuchinshan),e,17.4781,5.4764,72.9554,161.3054,0.0004811,0.95852784,0.0980,07/25.0/2024,2000,g  6.5,4.0
# From MPEC 2022-OB6
C/2021 T1 (Lemmon),e,140.3612,56.8445,51.5694,2075,0.0000104,0.99852494,0.0000,10/14.4730/2021,2000,g 12.5,4.0
# From MPEC 2023-A50
C/2021 T2 (Fuls),h,06/08.1078/2022,117.5359,223.2313,263.5760,1.000524,1.246260,2000,12.0,4.0
# From MPEC 2024-N80
C/2021 T4 (Lemmon),e,160.7782,257.8893,329.8111,17262,0.0000004,0.99991410,0.0000,07/31.5416/2023,2000,g  7.5,4.0
# From MPEC 2022-ED3
P/2021 U1 (Wierzchos),e,30.5519,246.7898,145.1843,8.535208,0.0395260,0.71295477,40.6285,07/25.0/2024,2000,g 14.5,4.0
# From MPEC 2022-L66
P/2021 U3 (Attard-Maury),e,69.9625,75.0940,335.2888,4.195506,0.1146905,0.54972820,115.1593,07/25.0/2024,2000,g 15.5,4.0
# From MPEC 2021-W31
C/2021 U4 (Leonard),e,152.8896,241.8085,237.3363,45.29411,0.0032333,0.96050574,3.0581,07/25.0/2024,2000,g 17.0,4.0
# From MPEC 2022-WQ9
C/2021 U5 (Catalina),e,39.0438,182.7241,321.4284,218.4430,0.0003053,0.98919582,0.0000,01/26.7285/2022,2000,g 13.0,4.0
# From MPEC 2022-CN4
C/2021 V1 (Rankin),e,71.4503,207.6753,195.1816,686.1568,0.0000548,0.99560347,0.0000,04/30.6015/2022,2000,g 13.0,4.0
# From MPEC 2024-JU4
P/2021 V2 (Fuls),e,12.6948,232.2757,259.8629,9.078758,0.0360300,0.61485395,19.8294,07/25.0/2024,2000,g 10.0,4.0
# From MPEC 2024-O39
C/2021 X1 (Maury-Attard),h,05/27.1584/2023,140.1001,10.5949,334.5741,1.000286,3.233701,2000,7.0,4.0
# From MPEC 2024-E08
C/2021 X2 (Bok),h,07/08.1587/2022,137.1604,228.8257,193.3339,1.001077,2.996437,2000,13.0,4.0
# From MPEC 2024-GJ3
C/2021 Y1 (ATLAS),h,04/30.7843/2023,77.1946,244.7669,245.8376,1.001272,2.032569,2000,7.0,4.0
# From MPEC 2022-YN2
C/2022 A1 (Sarneczky),e,116.5462,285.5035,201.2507,355.4372,0.0001471,0.99647011,0.0000,01/31.0489/2022,2000,g 18.0,4.0
# From MPEC 2024-NE4
C/2022 A2 (PANSTARRS),h,02/18.2122/2023,108.1384,171.5856,88.3681,1.000206,1.735511,2000,9.5,4.0
# From MPEC 2024-O39
C/2022 A3 (Lemmon-ATLAS),e,88.3415,325.4705,234.8549,858.9892,0.0000391,0.99568824,0.0000,09/28.8831/2023,2000,g  8.0,4.0
# From MPEC 2022-K19
P/2022 B1 (Wierzchos),e,10.9911,325.4196,148.8839,5.467600,0.0770919,0.65345342,67.8686,07/25.0/2024,2000,g 16.5,4.0
# From MPEC 2022-YB4
A/2022 B3,e,132.0533,286.1866,150.6955,674.4943,0.0000563,0.99451308,0.0000,01/17.0667/2022,2000,g 16.5,2.0
# From MPEC 2022-GA9
C/2022 B4 (Bok),e,20.0488,340.5834,152.9626,388.6731,0.0001286,0.99645774,0.0000,01/30.1316/2022,2000,g 21.0,4.0
# From MPEC 2023-J29
P/2022 BV9 (Lemmon),e,11.9280,337.3108,16.3246,4.363904,0.1081163,0.23408019,148.1674,07/25.0/2024,2000,g  9.5,4.0
# From MPEC 2023-J29
P/2022 C1 (PANSTARRS),e,4.7625,113.1124,9.3862,7.229005,0.0507091,0.44885008,50.3622,07/25.0/2024,2000,g 12.0,4.0
# From MPEC 2023-VM5
P/2022 C2 (PANSTARRS),e,9.9834,135.2608,89.1987,6.035663,0.0664686,0.44184242,47.7926,07/25.0/2024,2000,g 12.5,4.0
# From MPEC 2023-UR6
P/2022 C3 (PANSTARRS),e,12.8216,139.0404,93.8585,9.620908,0.0330278,0.54550340,24.9545,07/25.0/2024,2000,g 11.5,4.0
# From MPEC 2022-K19
P/2022 D1 (PANSTARRS),e,44.0766,47.9577,88.6548,7.403832,0.0489237,0.54766614,51.9421,07/25.0/2024,2000,g 12.5,4.0
# From MPEC 2022-K19
C/2022 D2 (Kowalski),e,22.6672,312.4006,177.8109,379.1477,0.0001335,0.99590380,0.0000,03/27.7725/2022,2000,g 17.0,4.0
# From MPEC 2022-L66
P/2022 E1 (Christensen),e,19.0071,113.3447,114.9822,3.778754,0.1341779,0.22061648,104.1328,07/25.0/2024,2000,g 13.5,4.0
# From MPEC 2024-JU4
C/2022 E2 (ATLAS),h,09/14.1251/2024,137.1284,125.3724,41.7213,1.000965,3.666278,2000,5.0,4.0
# From MPEC 2024-GJ3
C/2022 E3 (ZTF),h,01/12.6867/2023,109.1690,302.5413,145.8095,1.000034,1.112645,2000,7.5,4.0
# From MPEC 2024-NE4
C/2022 F1 (ATLAS),e,57.9888,350.6405,278.2933,3978,0.0000039,0.99849804,0.0000,08/05.1827/2022,2000,g  7.0,4.0
# From MPEC 2022-QD9
C/2022 F2 (NEOWISE),e,97.3138,58.7832,200.6200,23.92475,0.0084223,0.93358045,7.2013,07/25.0/2024,2000,g 14.5,4.0
# From MPEC 2024-JU4
C/2022 H1 (PANSTARRS),e,49.8604,6.3476,246.3020,885.4761,0.0000374,0.99131565,0.0000,01/19.0205/2024,2000,g  6.0,4.0
# From MPEC 2022-VC5
C/2022 J1 (Maury-Attard),e,105.9550,280.7783,305.6530,47.59726,0.0030015,0.96632217,2.6619,07/25.0/2024,2000,g 14.9,4.0
# From MPEC 2023-M14
